{
  "ret": true,
  "data": {
    "alpcitys":  [
      {"label":"北京Beijing010","name":"北京","pinyin":"Beijing","zip":"010"},
      {"label":"重庆Chongqing023","name":"重庆","pinyin":"Chongqing","zip":"023"},
      {"label":"上海Shanghai021","name":"上海","pinyin":"Shanghai","zip":"021"},
      {"label":"天津Tianjin022","name":"天津","pinyin":"Tianjin","zip":"022"},
      {"label":"长春Changchun0431","name":"长春","pinyin":"Changchun","zip":"0431"},
      {"label":"长沙Changsha0731","name":"长沙","pinyin":"Changsha","zip":"0731"},
      {"label":"常州Changzhou0519","name":"常州","pinyin":"Changzhou","zip":"0519"},
      {"label":"成都Chengdu028","name":"成都","pinyin":"Chengdu","zip":"028"},
      {"label":"大连Dalian0411","name":"大连","pinyin":"Dalian","zip":"0411"},
      {"label":"东莞Dongguan0769","name":"东莞","pinyin":"Dongguan","zip":"0769"},
      {"label":"佛山Foshan0757","name":"佛山","pinyin":"Foshan","zip":"0757"},
      {"label":"福州Fuzhou0591","name":"福州","pinyin":"Fuzhou","zip":"0591"},
      {"label":"广州Guangzhou020","name":"广州","pinyin":"Guangzhou","zip":"020"},
      {"label":"贵阳Guiyang0851","name":"贵阳","pinyin":"Guiyang","zip":"0851"},
      {"label":"哈尔滨Haerbin0451","name":"哈尔滨","pinyin":"Haerbin","zip":"0451"},
      {"label":"海口Haikou0898","name":"海口","pinyin":"Haikou","zip":"0898"},
      {"label":"邯郸Handan0310","name":"邯郸","pinyin":"Handan","zip":"0310"},
      {"label":"杭州Hangzhou0571","name":"杭州","pinyin":"Hangzhou","zip":"0571"},
      {"label":"合肥Hefei0551","name":"合肥","pinyin":"Hefei","zip":"0551"},
      {"label":"惠州Huizhou0752","name":"惠州","pinyin":"Huizhou","zip":"0752"},
      {"label":"焦作Jiaozuo0391","name":"焦作","pinyin":"Jiaozuo","zip":"0391"},
      {"label":"嘉兴Jiaxing0573","name":"嘉兴","pinyin":"Jiaxing","zip":"0573"},
      {"label":"吉林Jilin0423","name":"吉林","pinyin":"Jilin","zip":"0423"},
      {"label":"济南Jinan0531","name":"济南","pinyin":"Jinan","zip":"0531"},
      {"label":"昆明Kunming0871","name":"昆明","pinyin":"Kunming","zip":"0871"},
      {"label":"兰州Lanzhou0931","name":"兰州","pinyin":"Lanzhou","zip":"0931"},
      {"label":"柳州Liuzhou0772","name":"柳州","pinyin":"Liuzhou","zip":"0772"},
      {"label":"洛阳Luoyang0379","name":"洛阳","pinyin":"Luoyang","zip":"0379"},
      {"label":"南昌Nanchang0791","name":"南昌","pinyin":"Nanchang","zip":"0791"},
      {"label":"南京Nanjing025","name":"南京","pinyin":"Nanjing","zip":"025"},
      {"label":"南宁Nanning0771","name":"南宁","pinyin":"Nanning","zip":"0771"},
      {"label":"南通Nantong0513","name":"南通","pinyin":"Nantong","zip":"0513"},
      {"label":"宁波Ningbo0574","name":"宁波","pinyin":"Ningbo","zip":"0574"},
      {"label":"青岛Qingdao0532","name":"青岛","pinyin":"Qingdao","zip":"0532"},
      {"label":"泉州Quanzhou0595","name":"泉州","pinyin":"Quanzhou","zip":"0595"},
      {"label":"沈阳Shenyang024","name":"沈阳","pinyin":"Shenyang","zip":"024"},
      {"label":"深圳Shenzhen0755","name":"深圳","pinyin":"Shenzhen","zip":"0755"},
      {"label":"石家庄Shijiazhuang0311","name":"石家庄","pinyin":"Shijiazhuang","zip":"0311"},
      {"label":"苏州Suzhou0512","name":"苏州","pinyin":"Suzhou","zip":"0512"},
      {"label":"台州Taizhou0576","name":"台州","pinyin":"Taizhou","zip":"0576"},
      {"label":"唐山Tangshan0315","name":"唐山","pinyin":"Tangshan","zip":"0315"},
      {"label":"西安Xian029","name":"西安","pinyin":"Xian","zip":"029"},
      {"label":"许昌Xuchang0374","name":"许昌","pinyin":"Xuchang","zip":"0374"},
      {"label":"中山Zhongshan0760","name":"中山","pinyin":"Zhongshan","zip":"0760"},
      {"label":"珠海Zhuhai0756","name":"珠海","pinyin":"Zhuhai","zip":"0756"},
      {"label":"阿坝Aba0837","name":"阿坝","pinyin":"Aba","zip":"0837"},
      {"label":"阿克苏Akesu0997","name":"阿克苏","pinyin":"Akesu","zip":"0997"},
      {"label":"阿拉善盟Alashanmeng0483","name":"阿拉善盟","pinyin":"Alashanmeng","zip":"0483"},
      {"label":"阿勒泰Aletai0906","name":"阿勒泰","pinyin":"Aletai","zip":"0906"},
      {"label":"大兴安岭Daxinganling0457","name":"大兴安岭","pinyin":"Daxinganling","zip":"0457"},
      {"label":"达州Dazhou0818","name":"达州","pinyin":"Dazhou","zip":"0818"},
      {"label":"东营Dongying0546","name":"东营","pinyin":"Dongying","zip":"0546"},
      {"label":"鄂尔多斯Eerduosi0477","name":"鄂尔多斯","pinyin":"Eerduosi","zip":"0477"},
      {"label":"恩施Enshi0718","name":"恩施","pinyin":"Enshi","zip":"0718"},
      {"label":"鄂州Ezhou0711","name":"鄂州","pinyin":"Ezhou","zip":"0711"},
      {"label":"防城港Fangchenggang0770","name":"防城港","pinyin":"Fangchenggang","zip":"0770"},
      {"label":"莱芜Laiwu0634","name":"莱芜","pinyin":"Laiwu","zip":"0634"},
      {"label":"廊坊Langfang0316","name":"廊坊","pinyin":"Langfang","zip":"0316"},
      {"label":"普洱Puer0879","name":"普洱","pinyin":"Puer","zip":"0879"},
      {"label":"莆田Putian0594","name":"莆田","pinyin":"Putian","zip":"0594"},
      {"label":"濮阳Puyang0393","name":"濮阳","pinyin":"Puyang","zip":"0393"},
      {"label":"黔东Qiandong0855","name":"黔东","pinyin":"Qiandong","zip":"0855"},
      {"label":"黔南Qiannan0854","name":"黔南","pinyin":"Qiannan","zip":"0854"},
      {"label":"黔西南Qianxinan0859","name":"黔西南","pinyin":"Qianxinan","zip":"0859"},
      {"label":"三门峡Sanmenxia0398","name":"三门峡","pinyin":"Sanmenxia","zip":"0398"},
      {"label":"三明Sanming0598","name":"三明","pinyin":"Sanming","zip":"0598"},
      {"label":"通化Tonghua0435","name":"通化","pinyin":"Tonghua","zip":"0435"},
      {"label":"通辽Tongliao0475","name":"通辽","pinyin":"Tongliao","zip":"0475"},
      {"label":"铜陵Tongling0562","name":"铜陵","pinyin":"Tongling","zip":"0562"},
      {"label":"忻州Xinzhou0350","name":"忻州","pinyin":"Xinzhou","zip":"0350"},
      {"label":"西双版纳Xishuangbanna0691","name":"西双版纳","pinyin":"Xishuangbanna","zip":"0691"},
      {"label":"宣城Xuancheng0563","name":"宣城","pinyin":"Xuancheng","zip":"0563"},
      {"label":"镇江Zhenjiang0511","name":"镇江","pinyin":"Zhenjiang","zip":"0511"},
      {"label":"中卫Zhongwei0955","name":"中卫","pinyin":"Zhongwei","zip":"0955"},
      {"label":"安义Anyi0791","name":"安义","pinyin":"Anyi","zip":"0791"},
      {"label":"安远Anyuan0797","name":"安远","pinyin":"Anyuan","zip":"0797"},
      {"label":"宝应Baoying0514","name":"宝应","pinyin":"Baoying","zip":"0514"},
      {"label":"巴彦Bayan0451","name":"巴彦","pinyin":"Bayan","zip":"0451"},
      {"label":"滨海Binhai0515","name":"滨海","pinyin":"Binhai","zip":"0515"},
      {"label":"宾县Binxian0451","name":"宾县","pinyin":"Binxian","zip":"0451"},
      {"label":"宾阳Binyang0771","name":"宾阳","pinyin":"Binyang","zip":"0771"},
      {"label":"博罗Boluo0752","name":"博罗","pinyin":"Boluo","zip":"0752"},
      {"label":"长兴Changxing0572","name":"长兴","pinyin":"Changxing","zip":"0572"},
      {"label":"昌邑Changyi0536","name":"昌邑","pinyin":"Changyi","zip":"0536"},
      {"label":"洪泽Hongze0517","name":"洪泽","pinyin":"Hongze","zip":"0517"},
      {"label":"华安Huaan0596","name":"华安","pinyin":"Huaan","zip":"0596"},
      {"label":"桦甸Huadian0423","name":"桦甸","pinyin":"Huadian","zip":"0423"},
      {"label":"怀集Huaiji0758","name":"怀集","pinyin":"Huaiji","zip":"0758"},
      {"label":"怀宁Huaining0556","name":"怀宁","pinyin":"Huaining","zip":"0556"},
      {"label":"武安Wuan0111","name":"武安","pinyin":"Wuan","zip":"0111"},
      {"label":"三河Sanhe0112","name":"三河","pinyin":"Sanhe","zip":"0112"},
      {"label":"任丘Renqiu0113","name":"任丘","pinyin":"Renqiu","zip":"0113"}
    ],
    "hotscity": [
      {"label":"北京Beijing010","name":"北京","pinyin":"Beijing","zip":"010"},
      {"label":"重庆Chongqing023","name":"重庆","pinyin":"Chongqing","zip":"023"},
      {"label":"上海Shanghai021","name":"上海","pinyin":"Shanghai","zip":"021"},
      {"label":"天津Tianjin022","name":"天津","pinyin":"Tianjin","zip":"022"},
      {"label":"长春Changchun0431","name":"长春","pinyin":"Changchun","zip":"0431"},
      {"label":"长沙Changsha0731","name":"长沙","pinyin":"Changsha","zip":"0731"},
      {"label":"常州Changzhou0519","name":"常州","pinyin":"Changzhou","zip":"0519"},
      {"label":"成都Chengdu028","name":"成都","pinyin":"Chengdu","zip":"028"},
      {"label":"大连Dalian0411","name":"大连","pinyin":"Dalian","zip":"0411"},
      {"label":"东莞Dongguan0769","name":"东莞","pinyin":"Dongguan","zip":"0769"},
      {"label":"佛山Foshan0757","name":"佛山","pinyin":"Foshan","zip":"0757"},
      {"label":"福州Fuzhou0591","name":"福州","pinyin":"Fuzhou","zip":"0591"},
      {"label":"广州Guangzhou020","name":"广州","pinyin":"Guangzhou","zip":"020"},
      {"label":"贵阳Guiyang0851","name":"贵阳","pinyin":"Guiyang","zip":"0851"},
      {"label":"哈尔滨Haerbin0451","name":"哈尔滨","pinyin":"Haerbin","zip":"0451"},
      {"label":"海口Haikou0898","name":"海口","pinyin":"Haikou","zip":"0898"},
      {"label":"邯郸Handan0310","name":"邯郸","pinyin":"Handan","zip":"0310"}
    ]
  }
}
